EUTELSAT 7A             
1 28187U 04008A   26001.79262080  .00000107  00000+0  00000+0 0  9997
2 28187   5.4080  74.0184 0001405 226.8814 306.6708  1.00270134 79688
EUTELSAT HOTBIRD 13C    
1 33459U 08065A   26002.09555595 -.00000277  00000+0  00000+0 0  9991
2 33459   2.5235  81.1912 0003751 201.7152 162.9278  1.00269619 45681
EUTELSAT 36B            
1 36101U 09065A   26002.11557609  .00000120  00000+0  00000+0 0  9996
2 36101   0.0764  56.7849 0006156 225.3118 271.7924  1.00274484 59049
EUTELSAT KA-SAT 9A      
1 37258U 10069A   26002.10734270  .00000071  00000+0  00000+0 0  9991
2 37258   0.0505 338.8348 0001431 212.9043 317.6382  1.00277287 42341
EUTELSAT 7 WEST A       
1 37816U 11051A   26002.10413601 -.00000052  00000+0  00000+0 0  9995
2 37816   0.0628  10.3252 0005116 227.9466 253.6491  1.00271107 52214
EUTELSAT 16A            
1 37836U 11057A   26002.10872937  .00000112  00000+0  00000+0 0  9990
2 37836   0.0560   9.0391 0005455 274.1446 233.7158  1.00268317  5663
